{
    "links": {
        "self": "http://www.neowsapp.com/rest/v1/neo/3653323?api_key=iIulBulltgU6a56xZRHN4H3l9WmuAYTsLGpBGhQ2"
    },
    "id": "3653323",
    "neo_reference_id": "3653323",
    "name": "(2013 UK9)",
    "designation": "2013 UK9",
    "nasa_jpl_url": "http://ssd.jpl.nasa.gov/sbdb.cgi?sstr=3653323",
    "absolute_magnitude_h": 26.2,
    "estimated_diameter": {
        "kilometers": {
            "estimated_diameter_min": 0.0152951935,
            "estimated_diameter_max": 0.0342010925
        },
        "meters": {
            "estimated_diameter_min": 15.2951935344,
            "estimated_diameter_max": 34.201092472
        },
        "miles": {
            "estimated_diameter_min": 0.0095039897,
            "estimated_diameter_max": 0.021251567
        },
        "feet": {
            "estimated_diameter_min": 50.1810827555,
            "estimated_diameter_max": 112.2083122258
        }
    },
    "is_potentially_hazardous_asteroid": false,
    "close_approach_data": [
        {
            "close_approach_date": "1939-07-29",
            "close_approach_date_full": "1939-Jul-29 21:34",
            "epoch_date_close_approach": -960171960000,
            "relative_velocity": {
                "kilometers_per_second": "15.4716500008",
                "kilometers_per_hour": "55697.9400030121",
                "miles_per_hour": "34608.5338868716"
            },
            "miss_distance": {
                "astronomical": "0.270493333",
                "lunar": "105.221906537",
                "kilometers": "40465226.46600071",
                "miles": "25143925.786641398"
            },
            "orbiting_body": "Earth"
        },
        {
            "close_approach_date": "2013-10-25",
            "close_approach_date_full": "2013-Oct-25 13:58",
            "epoch_date_close_approach": 1382709480000,
            "relative_velocity": {
                "kilometers_per_second": "9.5372449986",
                "kilometers_per_hour": "34334.0819947982",
                "miles_per_hour": "21333.8633372678"
            },
            "miss_distance": {
                "astronomical": "0.0273705878",
                "lunar": "10.6471586542",
                "kilometers": "4094581.635527986",
                "miles": "2544255.0496427668"
            },
            "orbiting_body": "Earth"
        }
    ],
    "orbital_data": {
        "orbit_id": "6",
        "orbit_determination_date": "2017-04-06 08:43:54",
        "first_observation_date": "2013-10-30",
        "last_observation_date": "2013-11-06",
        "data_arc_in_days": 7,
        "observations_used": 25,
        "orbit_uncertainty": "8",
        "minimum_orbit_intersection": ".0230636",
        "jupiter_tisserand_invariant": "3.763",
        "epoch_osculation": "2456597.5",
        "eccentricity": ".4927739347873012",
        "semi_major_axis": "1.916718491895393",
        "inclination": "7.119007074933693",
        "ascending_node_longitude": "218.2590490246456",
        "orbital_period": "969.2502597858219",
        "perihelion_distance": ".9722095787645182",
        "perihelion_argument": "144.3548023587212",
        "aphelion_distance": "2.861227405026268",
        "perihelion_time": "2456567.554348192075",
        "mean_anomaly": "11.12244700685991",
        "mean_motion": ".3714211024091449",
        "equinox": "J2000",
        "orbit_class": {
            "orbit_class_type": "APO",
            "orbit_class_description": "Near-Earth asteroid orbits which cross the Earth’s orbit similar to that of 1862 Apollo",
            "orbit_class_range": "a (semi-major axis) > 1.0 AU; q (perihelion) < 1.017 AU"
        }
    },
    "is_sentry_object": false
}